*******************************************************************************
Ephemeris / WWW_USER Mon Jul 15 19:01:09 2024 Pasadena, USA      / Horizons    
*******************************************************************************
Target body name: (2018 RP1)                      {source: JPL#4}
Center body name: Earth (399)                     {source: DE441}
Center-site name: Gemini South Obs., Cerro Pachon
*******************************************************************************
Start time      : A.D. 2018-Oct-19 23:04:00.0000 UT      
Stop  time      : A.D. 2018-Oct-20 09:51:00.0000 UT      
Step-size       : 1 minutes
*******************************************************************************
Target pole/equ : undefined
Target radii    : undefined                                                    
Center geodetic : 289.2634, -30.2406227, 2.71233  {E-lon(deg),Lat(deg),Alt(km)}
Center cylindric: 289.2634,5517.21435,-3194.81213 {E-lon(deg),Dxy(km),Dz(km)}
Center pole/equ : ITRF93                          {East-longitude positive}
Center radii    : 6378.137, 6378.137, 6356.752 km {Equator_a, b, pole_c}       
Target primary  : Sun
Vis. interferer : MOON (R_eq= 1737.400) km        {source: DE441}
Rel. light bend : Sun                             {source: DE441}
Rel. lght bnd GM: 1.3271E+11 km^3/s^2                                          
Small-body perts: Yes                             {source: SB441-N16}
Atmos refraction: NO (AIRLESS)
RA format       : HMS
Time format     : CAL 
Calendar mode   : Mixed Julian/Gregorian
RTS-only print  : NO       
EOP file        : eop.240715.p241008                                           
EOP coverage    : DATA-BASED 1962-JAN-20 TO 2024-JUL-15. PREDICTS-> 2024-OCT-07
Units conversion: 1 au= 149597870.700 km, c= 299792.458 km/s, 1 day= 86400.0 s 
Table cut-offs 1: Elevation (-90.0deg=NO ),Airmass (>38.000=NO), Daylight (YES)
Table cut-offs 2: Solar elongation (  0.0,180.0=NO ),Local Hour Angle( 0.0=NO )
Table cut-offs 3: RA/DEC angular rate (     0.0=NO )                           
*******************************************************************************
Initial IAU76/J2000 heliocentric ecliptic osculating elements (au, days, deg.):
  EPOCH=  2458376.5 ! 2018-Sep-15.00 (TDB)         Residual RMS= .12525        
   EC= .3382936082205208   QR= .9576766169446216   TP= 2458412.3293739939      
   OM= 161.903422202901    W=  234.5704247756858   IN= 9.466091569921099       
  Equivalent ICRF heliocentric cartesian coordinates (au, au/d):
   X= 1.017940821946709E+00  Y=-7.278189102440286E-02  Z=-7.249995171787897E-02
  VX=-1.754817228708964E-03 VY= 1.862872143473751E-02 VZ= 4.887370356508847E-03
Asteroid physical parameters (km, seconds, rotational period in hours):        
   GM= n.a.                RAD= n.a.               ROTPER= n.a.                
   H= 24.3                 G= .150                 B-V= n.a.                   
                           ALBEDO= n.a.            STYP= n.a.                  
*******************************************************************************
 Date__(UT)__HR:MN     R.A._________(ICRF)_________DEC
******************************************************
$$SOE
 2018-Oct-19 23:04 Cm  08 33 37.822192 -21 46 42.34002
 2018-Oct-19 23:05 Cm  08 33 37.941059 -21 46 42.25719
 2018-Oct-19 23:06 Cm  08 33 38.059927 -21 46 42.17462
 2018-Oct-19 23:07 Cm  08 33 38.178798 -21 46 42.09232
 2018-Oct-19 23:08 Cm  08 33 38.297670 -21 46 42.01029
 2018-Oct-19 23:09 Cm  08 33 38.416544 -21 46 41.92852
 2018-Oct-19 23:10 Cm  08 33 38.535419 -21 46 41.84702
 2018-Oct-19 23:11 Cm  08 33 38.654295 -21 46 41.76579
 2018-Oct-19 23:12 Cm  08 33 38.773172 -21 46 41.68482
 2018-Oct-19 23:13 Cm  08 33 38.892049 -21 46 41.60412
 2018-Oct-19 23:14 Cm  08 33 39.010927 -21 46 41.52369
 2018-Oct-19 23:15 Cm  08 33 39.129805 -21 46 41.44353
 2018-Oct-19 23:16 Cm  08 33 39.248683 -21 46 41.36363
 2018-Oct-19 23:17 Cm  08 33 39.367561 -21 46 41.28400
 2018-Oct-19 23:18 Cm  08 33 39.486438 -21 46 41.20464
 2018-Oct-19 23:19 Cm  08 33 39.605315 -21 46 41.12555
 2018-Oct-19 23:20 Cm  08 33 39.724191 -21 46 41.04672
 2018-Oct-19 23:21 Nm  08 33 39.843065 -21 46 40.96816
 2018-Oct-19 23:22 Nm  08 33 39.961938 -21 46 40.88986
 2018-Oct-19 23:23 Nm  08 33 40.080809 -21 46 40.81184
 2018-Oct-19 23:24 Nm  08 33 40.199679 -21 46 40.73408
 2018-Oct-19 23:25 Nm  08 33 40.318546 -21 46 40.65659
 2018-Oct-19 23:26 Nm  08 33 40.437411 -21 46 40.57937
 2018-Oct-19 23:27 Nm  08 33 40.556273 -21 46 40.50241
 2018-Oct-19 23:28 Nm  08 33 40.675133 -21 46 40.42572
 2018-Oct-19 23:29 Nm  08 33 40.793990 -21 46 40.34930
 2018-Oct-19 23:30 Nm  08 33 40.912843 -21 46 40.27314
 2018-Oct-19 23:31 Nm  08 33 41.031693 -21 46 40.19726
 2018-Oct-19 23:32 Nm  08 33 41.150540 -21 46 40.12164
 2018-Oct-19 23:33 Nm  08 33 41.269382 -21 46 40.04628
 2018-Oct-19 23:34 Nm  08 33 41.388220 -21 46 39.97120
 2018-Oct-19 23:35 Nm  08 33 41.507054 -21 46 39.89638
 2018-Oct-19 23:36 Nm  08 33 41.625884 -21 46 39.82183
 2018-Oct-19 23:37 Nm  08 33 41.744708 -21 46 39.74754
 2018-Oct-19 23:38 Nm  08 33 41.863528 -21 46 39.67352
 2018-Oct-19 23:39 Nm  08 33 41.982342 -21 46 39.59977
 2018-Oct-19 23:40 Nm  08 33 42.101151 -21 46 39.52629
 2018-Oct-19 23:41 Nm  08 33 42.219954 -21 46 39.45307
 2018-Oct-19 23:42 Nm  08 33 42.338751 -21 46 39.38012
 2018-Oct-19 23:43 Nm  08 33 42.457542 -21 46 39.30743
 2018-Oct-19 23:44 Nm  08 33 42.576327 -21 46 39.23501
 2018-Oct-19 23:45 Nm  08 33 42.695105 -21 46 39.16286
 2018-Oct-19 23:46 Nm  08 33 42.813876 -21 46 39.09097
 2018-Oct-19 23:47 Nm  08 33 42.932640 -21 46 39.01935
 2018-Oct-19 23:48 Nm  08 33 43.051397 -21 46 38.94800
 2018-Oct-19 23:49 Nm  08 33 43.170146 -21 46 38.87691
 2018-Oct-19 23:50 Am  08 33 43.288888 -21 46 38.80608
 2018-Oct-19 23:51 Am  08 33 43.407621 -21 46 38.73553
 2018-Oct-19 23:52 Am  08 33 43.526347 -21 46 38.66523
 2018-Oct-19 23:53 Am  08 33 43.645064 -21 46 38.59521
 2018-Oct-19 23:54 Am  08 33 43.763772 -21 46 38.52544
 2018-Oct-19 23:55 Am  08 33 43.882472 -21 46 38.45594
 2018-Oct-19 23:56 Am  08 33 44.001162 -21 46 38.38671
 2018-Oct-19 23:57 Am  08 33 44.119843 -21 46 38.31774
 2018-Oct-19 23:58 Am  08 33 44.238515 -21 46 38.24904
 2018-Oct-19 23:59 Am  08 33 44.357177 -21 46 38.18060
 2018-Oct-20 00:00 Am  08 33 44.475829 -21 46 38.11242
 2018-Oct-20 00:01 Am  08 33 44.594471 -21 46 38.04451
 2018-Oct-20 00:02 Am  08 33 44.713102 -21 46 37.97686
 2018-Oct-20 00:03 Am  08 33 44.831723 -21 46 37.90947
 2018-Oct-20 00:04 Am  08 33 44.950332 -21 46 37.84235
 2018-Oct-20 00:05 Am  08 33 45.068931 -21 46 37.77549
 2018-Oct-20 00:06 Am  08 33 45.187519 -21 46 37.70889
 2018-Oct-20 00:07 Am  08 33 45.306095 -21 46 37.64256
 2018-Oct-20 00:08 Am  08 33 45.424659 -21 46 37.57649
 2018-Oct-20 00:09 Am  08 33 45.543211 -21 46 37.51068
 2018-Oct-20 00:10 Am  08 33 45.661751 -21 46 37.44513
 2018-Oct-20 00:11 Am  08 33 45.780278 -21 46 37.37984
 2018-Oct-20 00:12 Am  08 33 45.898793 -21 46 37.31482
 2018-Oct-20 00:13 Am  08 33 46.017296 -21 46 37.25005
 2018-Oct-20 00:14 Am  08 33 46.135785 -21 46 37.18555
 2018-Oct-20 00:15 Am  08 33 46.254260 -21 46 37.12131
 2018-Oct-20 00:16 Am  08 33 46.372722 -21 46 37.05733
 2018-Oct-20 00:17 Am  08 33 46.491171 -21 46 36.99360
 2018-Oct-20 00:18 Am  08 33 46.609605 -21 46 36.93014
 2018-Oct-20 00:19 Am  08 33 46.728026 -21 46 36.86694
 2018-Oct-20 00:20  m  08 33 46.846432 -21 46 36.80400
 2018-Oct-20 00:21  m  08 33 46.964823 -21 46 36.74131
 2018-Oct-20 00:22  m  08 33 47.083200 -21 46 36.67889
 2018-Oct-20 00:23  m  08 33 47.201561 -21 46 36.61672
 2018-Oct-20 00:24  m  08 33 47.319907 -21 46 36.55481
 2018-Oct-20 00:25  m  08 33 47.438238 -21 46 36.49316
 2018-Oct-20 00:26  m  08 33 47.556553 -21 46 36.43176
 2018-Oct-20 00:27  m  08 33 47.674852 -21 46 36.37063
 2018-Oct-20 00:28  m  08 33 47.793135 -21 46 36.30975
 2018-Oct-20 00:29  m  08 33 47.911402 -21 46 36.24912
 2018-Oct-20 00:30  m  08 33 48.029652 -21 46 36.18876
 2018-Oct-20 00:31  m  08 33 48.147885 -21 46 36.12864
 2018-Oct-20 00:32  m  08 33 48.266101 -21 46 36.06879
 2018-Oct-20 00:33  m  08 33 48.384300 -21 46 36.00919
 2018-Oct-20 00:34  m  08 33 48.502482 -21 46 35.94984
 2018-Oct-20 00:35  m  08 33 48.620646 -21 46 35.89075
 2018-Oct-20 00:36  m  08 33 48.738792 -21 46 35.83191
 2018-Oct-20 00:37  m  08 33 48.856920 -21 46 35.77333
 2018-Oct-20 00:38  m  08 33 48.975029 -21 46 35.71499
 2018-Oct-20 00:39  m  08 33 49.093121 -21 46 35.65692
 2018-Oct-20 00:40  m  08 33 49.211193 -21 46 35.59909
 2018-Oct-20 00:41  m  08 33 49.329247 -21 46 35.54152
 2018-Oct-20 00:42  m  08 33 49.447281 -21 46 35.48420
 2018-Oct-20 00:43  m  08 33 49.565296 -21 46 35.42713
 2018-Oct-20 00:44  m  08 33 49.683292 -21 46 35.37031
 2018-Oct-20 00:45  m  08 33 49.801267 -21 46 35.31374
 2018-Oct-20 00:46  m  08 33 49.919223 -21 46 35.25742
 2018-Oct-20 00:47  m  08 33 50.037159 -21 46 35.20135
 2018-Oct-20 00:48  m  08 33 50.155074 -21 46 35.14553
 2018-Oct-20 00:49  m  08 33 50.272968 -21 46 35.08996
 2018-Oct-20 00:50  m  08 33 50.390842 -21 46 35.03464
 2018-Oct-20 00:51  m  08 33 50.508694 -21 46 34.97957
 2018-Oct-20 00:52  m  08 33 50.626526 -21 46 34.92474
 2018-Oct-20 00:53  m  08 33 50.744336 -21 46 34.87016
 2018-Oct-20 00:54  m  08 33 50.862124 -21 46 34.81583
 2018-Oct-20 00:55  m  08 33 50.979890 -21 46 34.76174
 2018-Oct-20 00:56  m  08 33 51.097635 -21 46 34.70790
 2018-Oct-20 00:57  m  08 33 51.215357 -21 46 34.65431
 2018-Oct-20 00:58  m  08 33 51.333056 -21 46 34.60096
 2018-Oct-20 00:59  m  08 33 51.450733 -21 46 34.54785
 2018-Oct-20 01:00  m  08 33 51.568387 -21 46 34.49499
 2018-Oct-20 01:01  m  08 33 51.686018 -21 46 34.44237
 2018-Oct-20 01:02  m  08 33 51.803625 -21 46 34.39000
 2018-Oct-20 01:03  m  08 33 51.921209 -21 46 34.33786
 2018-Oct-20 01:04  m  08 33 52.038769 -21 46 34.28597
 2018-Oct-20 01:05  m  08 33 52.156305 -21 46 34.23432
 2018-Oct-20 01:06  m  08 33 52.273818 -21 46 34.18291
